[{"OBJECT_NAME":"SDA_1672","OBJECT_ID":"2025-230J","EPOCH":"2026-03-09T22:13:49.529280","MEAN_MOTION":13.84978873,"ECCENTRICITY":0.000446,"INCLINATION":81.3012,"RA_OF_ASC_NODE":303.7625,"ARG_OF_PERICENTER":83.2945,"MEAN_ANOMALY":276.872,"EPHEMERIS_TYPE":0,"CLASSIFICATION_TYPE":"U","NORAD_CAT_ID":65982,"ELEMENT_SET_NO":999,"REV_AT_EPOCH":2007,"BSTAR":0.0002038919,"MEAN_MOTION_DOT":2.42e-6,"MEAN_MOTION_DDOT":0},{"OBJECT_NAME":"COSMOS 1459","OBJECT_ID":"1983-042A","EPOCH":"2026-03-09T23:03:48.626208","MEAN_MOTION":13.76814693,"ECCENTRICITY":0.00505628,"INCLINATION":82.9686,"RA_OF_ASC_NODE":253.2152,"ARG_OF_PERICENTER":97.6833,"MEAN_ANOMALY":263.0071,"EPHEMERIS_TYPE":0,"CLASSIFICATION_TYPE":"U","NORAD_CAT_ID":14057,"ELEMENT_SET_NO":999,"REV_AT_EPOCH":15208,"BSTAR":5.7651507e-5,"MEAN_MOTION_DOT":7.3e-7,"MEAN_MOTION_DDOT":0}]
